{ "57693": {"name": "CAPELLA-11 (ACADIA-1)", "norad_id": "57693", "line1": "1 57693U 23126A   26187.03312972  .00005728  00000+0  69946-3 0  9993", "line2": "2 57693  53.0047 103.1095 0002435  78.0174 282.1078 14.84531045154925", "country": "USA", "operator": "Capella Space", "sensor": "SAR", "resolution_m": 0.5, "notes": "book:Capella - 11, 13 - 16", "fetched_at": 1783341804.423551, "stale": false}, "59444": {"name": "CAPELLA-14 (ACADIA-4)", "norad_id": "59444", "line1": "1 59444U 24066C   26186.96706133  .00014228  00000+0  88460-3 0  9997", "line2": "2 59444  45.6019 156.2988 0001483 160.8053 199.2889 15.09632490115328", "country": "USA", "operator": "Capella Space", "sensor": "SAR", "resolution_m": 0.5, "notes": "book:Capella - 11, 13 - 16", "fetched_at": 1783341804.7785025, "stale": false}, "60419": {"name": "CAPELLA-13 (ACADIA-3)", "norad_id": "60419", "line1": "1 60419U 24142A   26186.91015132  .00005702  00000+0  64607-3 0  9997", "line2": "2 60419  53.0057 335.8412 0001273  90.9721 269.1405 14.87645631103195", "country": "USA", "operator": "Capella Space", "sensor": "SAR", "resolution_m": 0.5, "notes": "book:Capella - 11, 13 - 16", "fetched_at": 1783341805.107171, "stale": false}, "60544": {"name": "CAPELLA-15 (ACADIA-5)", "norad_id": "60544", "line1": "1 60544U 24149CE  26187.16290603  .00004420  00000+0  43712-3 0  9999", "line2": "2 60544  97.6765 259.5920 0003855  16.7921 343.3426 14.92384860102687", "country": "USA", "operator": "Capella Space", "sensor": "SAR", "resolution_m": 0.5, "notes": "book:Capella - 11, 13 - 16", "fetched_at": 1783341805.4427226, "stale": false}, "64583": {"name": "CAPELLA-17 (ACADIA-7)", "norad_id": "64583", "line1": "1 64583U 25135BH  26187.19031374  .00007087  00000+0  71210-3 0  9999", "line2": "2 64583  97.7698 300.5312 0003782 290.1811  69.9001 14.91552757 56686", "country": "USA", "operator": "Capella Space", "sensor": "SAR", "resolution_m": 0.5, "notes": "book:Capella - 11, 13 - 16", "fetched_at": 1783341805.7737842, "stale": false}, "65318": {"name": "CAPELLA-16 (ACADIA-6)", "norad_id": "65318", "line1": "1 65318U 25188D   26187.17951830  .00006185  00000+0  58539-3 0  9997", "line2": "2 65318  97.7376 262.0469 0005042 158.0560 202.0877 14.93985533 46757", "country": "USA", "operator": "Capella Space", "sensor": "SAR", "resolution_m": 0.5, "notes": "book:Capella - 11, 13 - 16", "fetched_at": 1783341806.1070454, "stale": false}, "67384": {"name": "CAPELLA-19 (ACADIA-9)", "norad_id": "67384", "line1": "1 67384U 26004X   26186.97754279  .00005657  00000+0  64295-3 0  9994", "line2": "2 67384  97.8006 185.0119 0001517  89.5261 270.6129 14.86645157 26068", "country": "USA", "operator": "Capella Space", "sensor": "SAR", "resolution_m": 0.5, "notes": "book:Capella - 11, 13 - 16", "fetched_at": 1783341806.4400067, "stale": false}, "67385": {"name": "CAPELLA-18 (ACADIA-8)", "norad_id": "67385", "line1": "1 67385U 26004Y   26186.98757839  .00001437  00000+0  16786-3 0  9995", "line2": "2 67385  97.8010 185.1745 0001586  84.5780 275.5617 14.86651219 26070", "country": "USA", "operator": "Capella Space", "sensor": "SAR", "resolution_m": 0.5, "notes": "book:Capella - 11, 13 - 16", "fetched_at": 1783341806.773396, "stale": false}, "68485": {"name": "CAPELLA-20 (ACADIA-10)", "norad_id": "68485", "line1": "1 68485U 26067BX  26186.87459692  .00007335  00000+0  73287-3 0  9992", "line2": "2 68485  97.7581 144.8701 0000760 165.1250 194.9992 14.91771992 14512", "country": "USA", "operator": "Capella Space", "sensor": "SAR", "resolution_m": 0.5, "notes": "book:Capella - 11, 13 - 16", "fetched_at": 1783341807.1135023, "stale": false}}