{"fetched_at":"2026-07-06T18:35:26.822Z","source":"https://celestrak.org/NORAD/elements/gp.php?NAME=CAPELLA&FORMAT=JSON","constellation":"capella","records":[{"OBJECT_NAME":"CAPELLA-11 (ACADIA-1)","OBJECT_ID":"2023-126A","EPOCH":"2026-07-06T00:47:42.407808","CLASSIFICATION_TYPE":"U","MEAN_MOTION":14.84531045,"ECCENTRICITY":0.00024354,"INCLINATION":53.0047,"RA_OF_ASC_NODE":103.1095,"ARG_OF_PERICENTER":78.0174,"MEAN_ANOMALY":282.1078,"EPHEMERIS_TYPE":0,"NORAD_CAT_ID":57693,"ELEMENT_SET_NO":999,"REV_AT_EPOCH":15492,"BSTAR":0.00069946341,"MEAN_MOTION_DOT":0.00005728,"MEAN_MOTION_DDOT":0},{"OBJECT_NAME":"CAPELLA-14 (ACADIA-4)","OBJECT_ID":"2024-066C","EPOCH":"2026-07-05T23:12:34.098912","CLASSIFICATION_TYPE":"U","MEAN_MOTION":15.0963249,"ECCENTRICITY":0.00014832,"INCLINATION":45.6019,"RA_OF_ASC_NODE":156.2988,"ARG_OF_PERICENTER":160.8053,"MEAN_ANOMALY":199.2889,"EPHEMERIS_TYPE":0,"NORAD_CAT_ID":59444,"ELEMENT_SET_NO":999,"REV_AT_EPOCH":11532,"BSTAR":0.000884604,"MEAN_MOTION_DOT":0.00014228,"MEAN_MOTION_DDOT":0},{"OBJECT_NAME":"CAPELLA-13 (ACADIA-3)","OBJECT_ID":"2024-142A","EPOCH":"2026-07-05T21:50:37.074048","CLASSIFICATION_TYPE":"U","MEAN_MOTION":14.87645631,"ECCENTRICITY":0.00012739,"INCLINATION":53.0057,"RA_OF_ASC_NODE":335.8412,"ARG_OF_PERICENTER":90.9721,"MEAN_ANOMALY":269.1405,"EPHEMERIS_TYPE":0,"NORAD_CAT_ID":60419,"ELEMENT_SET_NO":999,"REV_AT_EPOCH":10319,"BSTAR":0.00064606816,"MEAN_MOTION_DOT":0.00005702,"MEAN_MOTION_DDOT":0},{"OBJECT_NAME":"CAPELLA-15 (ACADIA-5)","OBJECT_ID":"2024-149CE","EPOCH":"2026-07-06T03:54:35.080992","CLASSIFICATION_TYPE":"U","MEAN_MOTION":14.9238486,"ECCENTRICITY":0.00038553,"INCLINATION":97.6765,"RA_OF_ASC_NODE":259.592,"ARG_OF_PERICENTER":16.7921,"MEAN_ANOMALY":343.3426,"EPHEMERIS_TYPE":0,"NORAD_CAT_ID":60544,"ELEMENT_SET_NO":999,"REV_AT_EPOCH":10268,"BSTAR":0.00043711608,"MEAN_MOTION_DOT":0.0000442,"MEAN_MOTION_DDOT":0},{"OBJECT_NAME":"CAPELLA-17 (ACADIA-7)","OBJECT_ID":"2025-135BH","EPOCH":"2026-07-06T04:34:03.107136","CLASSIFICATION_TYPE":"U","MEAN_MOTION":14.91552757,"ECCENTRICITY":0.00037826,"INCLINATION":97.7698,"RA_OF_ASC_NODE":300.5312,"ARG_OF_PERICENTER":290.1811,"MEAN_ANOMALY":69.9001,"EPHEMERIS_TYPE":0,"NORAD_CAT_ID":64583,"ELEMENT_SET_NO":999,"REV_AT_EPOCH":5668,"BSTAR":0.00071210423,"MEAN_MOTION_DOT":0.00007087,"MEAN_MOTION_DDOT":0},{"OBJECT_NAME":"CAPELLA-16 (ACADIA-6)","OBJECT_ID":"2025-188D","EPOCH":"2026-07-06T04:18:30.381120","CLASSIFICATION_TYPE":"U","MEAN_MOTION":14.93985533,"ECCENTRICITY":0.00050428,"INCLINATION":97.7376,"RA_OF_ASC_NODE":262.0469,"ARG_OF_PERICENTER":158.056,"MEAN_ANOMALY":202.0877,"EPHEMERIS_TYPE":0,"NORAD_CAT_ID":65318,"ELEMENT_SET_NO":999,"REV_AT_EPOCH":4675,"BSTAR":0.00058539098,"MEAN_MOTION_DOT":0.00006185,"MEAN_MOTION_DDOT":0},{"OBJECT_NAME":"CAPELLA-19 (ACADIA-9)","OBJECT_ID":"2026-004X","EPOCH":"2026-07-05T23:27:39.697056","CLASSIFICATION_TYPE":"U","MEAN_MOTION":14.86645157,"ECCENTRICITY":0.00015174,"INCLINATION":97.8006,"RA_OF_ASC_NODE":185.0119,"ARG_OF_PERICENTER":89.5261,"MEAN_ANOMALY":270.6129,"EPHEMERIS_TYPE":0,"NORAD_CAT_ID":67384,"ELEMENT_SET_NO":999,"REV_AT_EPOCH":2606,"BSTAR":0.00064294578,"MEAN_MOTION_DOT":0.00005657,"MEAN_MOTION_DDOT":0},{"OBJECT_NAME":"CAPELLA-18 (ACADIA-8)","OBJECT_ID":"2026-004Y","EPOCH":"2026-07-05T23:42:06.772896","CLASSIFICATION_TYPE":"U","MEAN_MOTION":14.86651219,"ECCENTRICITY":0.0001586,"INCLINATION":97.801,"RA_OF_ASC_NODE":185.1745,"ARG_OF_PERICENTER":84.578,"MEAN_ANOMALY":275.5617,"EPHEMERIS_TYPE":0,"NORAD_CAT_ID":67385,"ELEMENT_SET_NO":999,"REV_AT_EPOCH":2607,"BSTAR":0.0001678647,"MEAN_MOTION_DOT":0.00001437,"MEAN_MOTION_DDOT":0},{"OBJECT_NAME":"CAPELLA-20 (ACADIA-10)","OBJECT_ID":"2026-067BX","EPOCH":"2026-07-05T20:59:25.173888","CLASSIFICATION_TYPE":"U","MEAN_MOTION":14.91771992,"ECCENTRICITY":0.00007605,"INCLINATION":97.7581,"RA_OF_ASC_NODE":144.8701,"ARG_OF_PERICENTER":165.125,"MEAN_ANOMALY":194.9992,"EPHEMERIS_TYPE":0,"NORAD_CAT_ID":68485,"ELEMENT_SET_NO":999,"REV_AT_EPOCH":1451,"BSTAR":0.00073286729,"MEAN_MOTION_DOT":0.00007335,"MEAN_MOTION_DDOT":0}]}
